{
  "40300424": {
    "url": "https://www.bigbasket.com/pd/40300424/super-saver-sona-masoori-raw-rice-26-kg-bag/",
    "slug": "super-saver-sona-masoori-raw-rice-26-kg-bag",
    "title": "Super Saver Sona Masoori Raw Rice 26 Kg Bag",
    "status": "unknown",
    "last_checked": null
  },
  "10000074": {
    "url": "https://www.bigbasket.com/pd/10000074/fresho-cauliflower-1-pc/?nc=smart_basket&nc=My+Smart+Basket&t_pg=%252Foct-homepage-t1%252F&t_p=Oct-T1_2023&t_pos_sec=3&t_ch=desktop&t_pos_item=2&t_s=Cauliflower",
    "slug": "fresho-cauliflower-1-pc",
    "title": "Fresho Cauliflower 1 Pc",
    "status": "in_stock",
    "last_checked": null
  },
  "40357155": {
    "url": "https://www.bigbasket.com/pd/40357155/apple-iphone-15-128gb-blue-1-unit/?nc=cl-prod-list&t_pos_sec=1&t_pos_item=16&t_s=iPhone+15+%2528128GB%252C+Blue%2529",
    "slug": "apple-iphone-15-128gb-blue-1-unit",
    "title": "Apple Iphone 15 128Gb Blue 1 Unit",
    "status": "out_of_stock",
    "last_checked": null
  },
  "40356302": {
    "url": "https://www.bigbasket.com/pd/40356302/apple-iphone-17-256gb-mist-blue-1-unit/?nc=cl-prod-list&t_pos_sec=1&t_pos_item=17&t_s=Apple+iPhone+17+%2528256GB%252C+Mist+Blue%2529",
    "slug": "apple-iphone-17-256gb-mist-blue-1-unit",
    "title": "Apple Iphone 17 256Gb Mist Blue 1 Unit",
    "status": "in_stock",
    "last_checked": null
  },
  "40356300": {
    "url": "https://www.bigbasket.com/pd/40356300/apple-iphone-17-256gb-black-1-unit/?nc=cl-prod-list&t_pos_sec=1&t_pos_item=18&t_s=Apple+iPhone+17+%2528256GB%252C+Black%2529",
    "slug": "apple-iphone-17-256gb-black-1-unit",
    "title": "Apple Iphone 17 256Gb Black 1 Unit",
    "status": "in_stock",
    "last_checked": null
  },
  "10000074|122001": {
    "url": "https://www.bigbasket.com/pd/10000074/fresho-cauliflower-1-pc/",
    "slug": "fresho-cauliflower-1-pc",
    "title": "Fresho Cauliflower 1 Pc",
    "status": "in_stock",
    "pincode": "122001"
  },
  "10000074|560001": {
    "url": "https://www.bigbasket.com/pd/10000074/fresho-cauliflower-1-pc/",
    "slug": "fresho-cauliflower-1-pc",
    "title": "Fresho Cauliflower 1 Pc",
    "status": "in_stock",
    "pincode": "560001"
  },
  "40300424|122001": {
    "url": "https://www.bigbasket.com/pd/40300424/super-saver-sona-masoori-raw-rice-26-kg-bag/",
    "slug": "super-saver-sona-masoori-raw-rice-26-kg-bag",
    "title": "Super Saver Sona Masoori Raw Rice 26 Kg Bag",
    "status": "out_of_stock",
    "pincode": "122001"
  },
  "40357155|122001": {
    "url": "https://www.bigbasket.com/pd/40357155/apple-iphone-15-128gb-blue-1-unit/",
    "slug": "apple-iphone-15-128gb-blue-1-unit",
    "title": "Apple Iphone 15 128Gb Blue 1 Unit",
    "status": "out_of_stock",
    "pincode": "122001"
  },
  "40356302|122001": {
    "url": "https://www.bigbasket.com/pd/40356302/apple-iphone-17-256gb-mist-blue-1-unit/",
    "slug": "apple-iphone-17-256gb-mist-blue-1-unit",
    "title": "Apple Iphone 17 256Gb Mist Blue 1 Unit",
    "status": "unknown",
    "pincode": "122001"
  },
  "40356300|122001": {
    "url": "https://www.bigbasket.com/pd/40356300/apple-iphone-17-256gb-black-1-unit/",
    "slug": "apple-iphone-17-256gb-black-1-unit",
    "title": "Apple Iphone 17 256Gb Black 1 Unit",
    "status": "unknown",
    "pincode": "122001"
  },
  "40300424|560001": {
    "url": "https://www.bigbasket.com/pd/40300424/super-saver-sona-masoori-raw-rice-26-kg-bag/",
    "slug": "super-saver-sona-masoori-raw-rice-26-kg-bag",
    "title": "Super Saver Sona Masoori Raw Rice 26 Kg Bag",
    "status": "in_stock",
    "pincode": "560001"
  },
  "40357155|560001": {
    "url": "https://www.bigbasket.com/pd/40357155/apple-iphone-15-128gb-blue-1-unit/",
    "slug": "apple-iphone-15-128gb-blue-1-unit",
    "title": "Apple Iphone 15 128Gb Blue 1 Unit",
    "status": "unknown",
    "pincode": "560001"
  },
  "40356302|560001": {
    "url": "https://www.bigbasket.com/pd/40356302/apple-iphone-17-256gb-mist-blue-1-unit/",
    "slug": "apple-iphone-17-256gb-mist-blue-1-unit",
    "title": "Apple Iphone 17 256Gb Mist Blue 1 Unit",
    "status": "unknown",
    "pincode": "560001"
  },
  "40356300|560001": {
    "url": "https://www.bigbasket.com/pd/40356300/apple-iphone-17-256gb-black-1-unit/",
    "slug": "apple-iphone-17-256gb-black-1-unit",
    "title": "Apple Iphone 17 256Gb Black 1 Unit",
    "status": "unknown",
    "pincode": "560001"
  },
  "10000074|110001": {
    "url": "https://www.bigbasket.com/pd/10000074/fresho-cauliflower-1-pc/",
    "slug": "fresho-cauliflower-1-pc",
    "title": "Fresho Cauliflower 1 Pc",
    "status": "out_of_stock",
    "pincode": "110001"
  },
  "40300424|110001": {
    "url": "https://www.bigbasket.com/pd/40300424/super-saver-sona-masoori-raw-rice-26-kg-bag/",
    "slug": "super-saver-sona-masoori-raw-rice-26-kg-bag",
    "title": "Super Saver Sona Masoori Raw Rice 26 Kg Bag",
    "status": "out_of_stock",
    "pincode": "110001"
  },
  "40357155|110001": {
    "url": "https://www.bigbasket.com/pd/40357155/apple-iphone-15-128gb-blue-1-unit/",
    "slug": "apple-iphone-15-128gb-blue-1-unit",
    "title": "Apple Iphone 15 128Gb Blue 1 Unit",
    "status": "unknown",
    "pincode": "110001"
  },
  "40356302|110001": {
    "url": "https://www.bigbasket.com/pd/40356302/apple-iphone-17-256gb-mist-blue-1-unit/",
    "slug": "apple-iphone-17-256gb-mist-blue-1-unit",
    "title": "Apple Iphone 17 256Gb Mist Blue 1 Unit",
    "status": "unknown",
    "pincode": "110001"
  },
  "40356300|110001": {
    "url": "https://www.bigbasket.com/pd/40356300/apple-iphone-17-256gb-black-1-unit/",
    "slug": "apple-iphone-17-256gb-black-1-unit",
    "title": "Apple Iphone 17 256Gb Black 1 Unit",
    "status": "unknown",
    "pincode": "110001"
  },
  "10000074|400001": {
    "url": "https://www.bigbasket.com/pd/10000074/fresho-cauliflower-1-pc/",
    "slug": "fresho-cauliflower-1-pc",
    "title": "Fresho Cauliflower 1 Pc",
    "status": "out_of_stock",
    "pincode": "400001"
  },
  "40300424|400001": {
    "url": "https://www.bigbasket.com/pd/40300424/super-saver-sona-masoori-raw-rice-26-kg-bag/",
    "slug": "super-saver-sona-masoori-raw-rice-26-kg-bag",
    "title": "Super Saver Sona Masoori Raw Rice 26 Kg Bag",
    "status": "out_of_stock",
    "pincode": "400001"
  },
  "40357155|400001": {
    "url": "https://www.bigbasket.com/pd/40357155/apple-iphone-15-128gb-blue-1-unit/",
    "slug": "apple-iphone-15-128gb-blue-1-unit",
    "title": "Apple Iphone 15 128Gb Blue 1 Unit",
    "status": "unknown",
    "pincode": "400001"
  },
  "40356302|400001": {
    "url": "https://www.bigbasket.com/pd/40356302/apple-iphone-17-256gb-mist-blue-1-unit/",
    "slug": "apple-iphone-17-256gb-mist-blue-1-unit",
    "title": "Apple Iphone 17 256Gb Mist Blue 1 Unit",
    "status": "unknown",
    "pincode": "400001"
  },
  "40356300|400001": {
    "url": "https://www.bigbasket.com/pd/40356300/apple-iphone-17-256gb-black-1-unit/",
    "slug": "apple-iphone-17-256gb-black-1-unit",
    "title": "Apple Iphone 17 256Gb Black 1 Unit",
    "status": "unknown",
    "pincode": "400001"
  },
  "40357155|110016": {
    "url": "https://www.bigbasket.com/pd/40357155/apple-iphone-15-128gb-blue-1-unit/",
    "slug": "apple-iphone-15-128gb-blue-1-unit",
    "title": "Apple Iphone 15 128Gb Blue 1 Unit",
    "status": "out_of_stock",
    "pincode": "110016"
  },
  "40357153|110016": {
    "url": "https://www.bigbasket.com/pd/40357153/apple-iphone-15-128gb-black-1-unit/",
    "slug": "apple-iphone-15-128gb-black-1-unit",
    "title": "Apple Iphone 15 128Gb Black 1 Unit",
    "status": "out_of_stock",
    "pincode": "110016"
  },
  "40332362|110016": {
    "url": "https://www.bigbasket.com/pd/40332362/apple-iphone-15-128gb-green-1-unit/",
    "slug": "apple-iphone-15-128gb-green-1-unit",
    "title": "Apple Iphone 15 128Gb Green 1 Unit",
    "status": "out_of_stock",
    "pincode": "110016"
  },
  "40330605|110016": {
    "url": "https://www.bigbasket.com/pd/40330605/apple-iphone-16-128gb-ultramarine-1-n/",
    "slug": "apple-iphone-16-128gb-ultramarine-1-n",
    "title": "Apple Iphone 16 128Gb Ultramarine 1 N",
    "status": "out_of_stock",
    "pincode": "110016"
  },
  "40330607|110016": {
    "url": "https://www.bigbasket.com/pd/40330607/apple-iphone-16-256gb-black-1-n/",
    "slug": "apple-iphone-16-256gb-black-1-n",
    "title": "Apple Iphone 16 256Gb Black 1 N",
    "status": "out_of_stock",
    "pincode": "110016"
  },
  "40330608|110016": {
    "url": "https://www.bigbasket.com/pd/40330608/apple-iphone-16-256gb-white-1-n/",
    "slug": "apple-iphone-16-256gb-white-1-n",
    "title": "Apple Iphone 16 256Gb White 1 N",
    "status": "out_of_stock",
    "pincode": "110016"
  },
  "40357155|110045": {
    "url": "https://www.bigbasket.com/pd/40357155/apple-iphone-15-128gb-blue-1-unit/",
    "slug": "apple-iphone-15-128gb-blue-1-unit",
    "title": "Apple Iphone 15 128Gb Blue 1 Unit",
    "status": "out_of_stock",
    "pincode": "110045"
  },
  "40357153|110045": {
    "url": "https://www.bigbasket.com/pd/40357153/apple-iphone-15-128gb-black-1-unit/",
    "slug": "apple-iphone-15-128gb-black-1-unit",
    "title": "Apple Iphone 15 128Gb Black 1 Unit",
    "status": "out_of_stock",
    "pincode": "110045"
  },
  "40332362|110045": {
    "url": "https://www.bigbasket.com/pd/40332362/apple-iphone-15-128gb-green-1-unit/",
    "slug": "apple-iphone-15-128gb-green-1-unit",
    "title": "Apple Iphone 15 128Gb Green 1 Unit",
    "status": "out_of_stock",
    "pincode": "110045"
  },
  "40330605|110045": {
    "url": "https://www.bigbasket.com/pd/40330605/apple-iphone-16-128gb-ultramarine-1-n/",
    "slug": "apple-iphone-16-128gb-ultramarine-1-n",
    "title": "Apple Iphone 16 128Gb Ultramarine 1 N",
    "status": "out_of_stock",
    "pincode": "110045"
  },
  "40330607|110045": {
    "url": "https://www.bigbasket.com/pd/40330607/apple-iphone-16-256gb-black-1-n/",
    "slug": "apple-iphone-16-256gb-black-1-n",
    "title": "Apple Iphone 16 256Gb Black 1 N",
    "status": "out_of_stock",
    "pincode": "110045"
  },
  "40330608|110045": {
    "url": "https://www.bigbasket.com/pd/40330608/apple-iphone-16-256gb-white-1-n/",
    "slug": "apple-iphone-16-256gb-white-1-n",
    "title": "Apple Iphone 16 256Gb White 1 N",
    "status": "out_of_stock",
    "pincode": "110045"
  },
  "40357155|110009": {
    "url": "https://www.bigbasket.com/pd/40357155/apple-iphone-15-128gb-blue-1-unit/",
    "slug": "apple-iphone-15-128gb-blue-1-unit",
    "title": "Apple Iphone 15 128Gb Blue 1 Unit",
    "status": "out_of_stock",
    "pincode": "110009"
  },
  "40357153|110009": {
    "url": "https://www.bigbasket.com/pd/40357153/apple-iphone-15-128gb-black-1-unit/",
    "slug": "apple-iphone-15-128gb-black-1-unit",
    "title": "Apple Iphone 15 128Gb Black 1 Unit",
    "status": "out_of_stock",
    "pincode": "110009"
  },
  "40332362|110009": {
    "url": "https://www.bigbasket.com/pd/40332362/apple-iphone-15-128gb-green-1-unit/",
    "slug": "apple-iphone-15-128gb-green-1-unit",
    "title": "Apple Iphone 15 128Gb Green 1 Unit",
    "status": "out_of_stock",
    "pincode": "110009"
  },
  "40330605|110009": {
    "url": "https://www.bigbasket.com/pd/40330605/apple-iphone-16-128gb-ultramarine-1-n/",
    "slug": "apple-iphone-16-128gb-ultramarine-1-n",
    "title": "Apple Iphone 16 128Gb Ultramarine 1 N",
    "status": "out_of_stock",
    "pincode": "110009"
  },
  "40330607|110009": {
    "url": "https://www.bigbasket.com/pd/40330607/apple-iphone-16-256gb-black-1-n/",
    "slug": "apple-iphone-16-256gb-black-1-n",
    "title": "Apple Iphone 16 256Gb Black 1 N",
    "status": "out_of_stock",
    "pincode": "110009"
  },
  "40330608|110009": {
    "url": "https://www.bigbasket.com/pd/40330608/apple-iphone-16-256gb-white-1-n/",
    "slug": "apple-iphone-16-256gb-white-1-n",
    "title": "Apple Iphone 16 256Gb White 1 N",
    "status": "out_of_stock",
    "pincode": "110009"
  },
  "40357153|122001": {
    "url": "https://www.bigbasket.com/pd/40357153/apple-iphone-15-128gb-black-1-unit/",
    "slug": "apple-iphone-15-128gb-black-1-unit",
    "title": "Apple Iphone 15 128Gb Black 1 Unit",
    "status": "out_of_stock",
    "pincode": "122001"
  },
  "40332362|122001": {
    "url": "https://www.bigbasket.com/pd/40332362/apple-iphone-15-128gb-green-1-unit/",
    "slug": "apple-iphone-15-128gb-green-1-unit",
    "title": "Apple Iphone 15 128Gb Green 1 Unit",
    "status": "out_of_stock",
    "pincode": "122001"
  },
  "40330605|122001": {
    "url": "https://www.bigbasket.com/pd/40330605/apple-iphone-16-128gb-ultramarine-1-n/",
    "slug": "apple-iphone-16-128gb-ultramarine-1-n",
    "title": "Apple Iphone 16 128Gb Ultramarine 1 N",
    "status": "out_of_stock",
    "pincode": "122001"
  },
  "40330607|122001": {
    "url": "https://www.bigbasket.com/pd/40330607/apple-iphone-16-256gb-black-1-n/",
    "slug": "apple-iphone-16-256gb-black-1-n",
    "title": "Apple Iphone 16 256Gb Black 1 N",
    "status": "out_of_stock",
    "pincode": "122001"
  },
  "40330608|122001": {
    "url": "https://www.bigbasket.com/pd/40330608/apple-iphone-16-256gb-white-1-n/",
    "slug": "apple-iphone-16-256gb-white-1-n",
    "title": "Apple Iphone 16 256Gb White 1 N",
    "status": "out_of_stock",
    "pincode": "122001"
  },
  "40357155|122002": {
    "url": "https://www.bigbasket.com/pd/40357155/apple-iphone-15-128gb-blue-1-unit/",
    "slug": "apple-iphone-15-128gb-blue-1-unit",
    "title": "Apple Iphone 15 128Gb Blue 1 Unit",
    "status": "out_of_stock",
    "pincode": "122002"
  },
  "40357153|122002": {
    "url": "https://www.bigbasket.com/pd/40357153/apple-iphone-15-128gb-black-1-unit/",
    "slug": "apple-iphone-15-128gb-black-1-unit",
    "title": "Apple Iphone 15 128Gb Black 1 Unit",
    "status": "out_of_stock",
    "pincode": "122002"
  },
  "40332362|122002": {
    "url": "https://www.bigbasket.com/pd/40332362/apple-iphone-15-128gb-green-1-unit/",
    "slug": "apple-iphone-15-128gb-green-1-unit",
    "title": "Apple Iphone 15 128Gb Green 1 Unit",
    "status": "out_of_stock",
    "pincode": "122002"
  },
  "40330605|122002": {
    "url": "https://www.bigbasket.com/pd/40330605/apple-iphone-16-128gb-ultramarine-1-n/",
    "slug": "apple-iphone-16-128gb-ultramarine-1-n",
    "title": "Apple Iphone 16 128Gb Ultramarine 1 N",
    "status": "out_of_stock",
    "pincode": "122002"
  },
  "40330607|122002": {
    "url": "https://www.bigbasket.com/pd/40330607/apple-iphone-16-256gb-black-1-n/",
    "slug": "apple-iphone-16-256gb-black-1-n",
    "title": "Apple Iphone 16 256Gb Black 1 N",
    "status": "out_of_stock",
    "pincode": "122002"
  },
  "40330608|122002": {
    "url": "https://www.bigbasket.com/pd/40330608/apple-iphone-16-256gb-white-1-n/",
    "slug": "apple-iphone-16-256gb-white-1-n",
    "title": "Apple Iphone 16 256Gb White 1 N",
    "status": "out_of_stock",
    "pincode": "122002"
  },
  "40330602|110016": {
    "url": "https://www.bigbasket.com/pd/40330602/apple-iphone-16-128gb-black-1-n/",
    "slug": "apple-iphone-16-128gb-black-1-n",
    "title": "Apple Iphone 16 128Gb Black 1 N",
    "status": "out_of_stock",
    "pincode": "110016"
  },
  "40330606|110016": {
    "url": "https://www.bigbasket.com/pd/40330606/apple-iphone-16-128gb-teal-1-n/",
    "slug": "apple-iphone-16-128gb-teal-1-n",
    "title": "Apple Iphone 16 128Gb Teal 1 N",
    "status": "out_of_stock",
    "pincode": "110016"
  },
  "40330602|110045": {
    "url": "https://www.bigbasket.com/pd/40330602/apple-iphone-16-128gb-black-1-n/",
    "slug": "apple-iphone-16-128gb-black-1-n",
    "title": "Apple Iphone 16 128Gb Black 1 N",
    "status": "out_of_stock",
    "pincode": "110045"
  },
  "40330606|110045": {
    "url": "https://www.bigbasket.com/pd/40330606/apple-iphone-16-128gb-teal-1-n/",
    "slug": "apple-iphone-16-128gb-teal-1-n",
    "title": "Apple Iphone 16 128Gb Teal 1 N",
    "status": "out_of_stock",
    "pincode": "110045"
  },
  "40330602|110009": {
    "url": "https://www.bigbasket.com/pd/40330602/apple-iphone-16-128gb-black-1-n/",
    "slug": "apple-iphone-16-128gb-black-1-n",
    "title": "Apple Iphone 16 128Gb Black 1 N",
    "status": "out_of_stock",
    "pincode": "110009"
  },
  "40330606|110009": {
    "url": "https://www.bigbasket.com/pd/40330606/apple-iphone-16-128gb-teal-1-n/",
    "slug": "apple-iphone-16-128gb-teal-1-n",
    "title": "Apple Iphone 16 128Gb Teal 1 N",
    "status": "out_of_stock",
    "pincode": "110009"
  },
  "40330602|122001": {
    "url": "https://www.bigbasket.com/pd/40330602/apple-iphone-16-128gb-black-1-n/",
    "slug": "apple-iphone-16-128gb-black-1-n",
    "title": "Apple Iphone 16 128Gb Black 1 N",
    "status": "out_of_stock",
    "pincode": "122001"
  },
  "40330606|122001": {
    "url": "https://www.bigbasket.com/pd/40330606/apple-iphone-16-128gb-teal-1-n/",
    "slug": "apple-iphone-16-128gb-teal-1-n",
    "title": "Apple Iphone 16 128Gb Teal 1 N",
    "status": "out_of_stock",
    "pincode": "122001"
  },
  "40330602|122002": {
    "url": "https://www.bigbasket.com/pd/40330602/apple-iphone-16-128gb-black-1-n/",
    "slug": "apple-iphone-16-128gb-black-1-n",
    "title": "Apple Iphone 16 128Gb Black 1 N",
    "status": "out_of_stock",
    "pincode": "122002"
  },
  "40330606|122002": {
    "url": "https://www.bigbasket.com/pd/40330606/apple-iphone-16-128gb-teal-1-n/",
    "slug": "apple-iphone-16-128gb-teal-1-n",
    "title": "Apple Iphone 16 128Gb Teal 1 N",
    "status": "out_of_stock",
    "pincode": "122002"
  }
}